{"type": "FeatureCollection", "features": [ {"type": "Feature", "properties": {"norad_id": 35884, "name": "COSMOS 2251 DEB", "group": "cosmos-2251-debris", "lat": 11.66749937217193, "lon": 167.69732583619168, "alt_km": 737.5401222157961, "timestamp": "2025-12-04T09:47:37.916536+00:00", "meta": {"OBJECT_NAME": "COSMOS 2251 DEB", "OBJECT_ID": "1993-036ATX", "EPOCH": "2025-12-01T08:35:40.210656", "MEAN_MOTION": 14.25555603, "ECCENTRICITY": 0.01094526, "INCLINATION": 73.9914, "RA_OF_ASC_NODE": 356.6148, "ARG_OF_PERICENTER": 146.5236, "MEAN_ANOMALY": 214.2894, "EPHEMERIS_TYPE": 0, "CLASSIFICATION_TYPE": "U", "NORAD_CAT_ID": 35884, "ELEMENT_SET_NO": 999, "REV_AT_EPOCH": 22195, "BSTAR": 0.0012758145, "MEAN_MOTION_DOT": 3.19e-05, "MEAN_MOTION_DDOT": 0}, "tle": {"line1": "1 35884U 93036ATX 25335.35810429  .00003190  00000+0  12758-2 0  9996", "line2": "2 35884  73.9914 356.6148 0109452 146.5236 214.2894 14.25555603221959"}}, "geometry": {"type": "Point", "coordinates": [167.69732583619168, 11.66749937217193]}}, {"type": "Feature", "properties": {"norad_id": 35885, "name": "COSMOS 2251 DEB", "group": "cosmos-2251-debris", "lat": -37.27367496536143, "lon": -62.45192184392374, "alt_km": 767.746419138758, "timestamp": "2025-12-04T09:47:37.916546+00:00", "meta": {"OBJECT_NAME": "COSMOS 2251 DEB", "OBJECT_ID": "1993-036ATY", "EPOCH": "2025-12-01T06:48:48.094272", "MEAN_MOTION": 14.37483132, "ECCENTRICITY": 0.0022714, "INCLINATION": 74.0277, "RA_OF_ASC_NODE": 315.8881, "ARG_OF_PERICENTER": 39.4634, "MEAN_ANOMALY": 320.8169, "EPHEMERIS_TYPE": 0, "CLASSIFICATION_TYPE": "U", "NORAD_CAT_ID": 35885, "ELEMENT_SET_NO": 999, "REV_AT_EPOCH": 64851, "BSTAR": 0.00036957, "MEAN_MOTION_DOT": 1.083e-05, "MEAN_MOTION_DDOT": 0}, "tle": {"line1": "1 35885U 93036ATY 25335.28388998  .00001083  00000+0  36957-3 0  9997", "line2": "2 35885  74.0277 315.8881 0022714  39.4634 320.8169 14.37483132648516"}}, "geometry": {"type": "Point", "coordinates": [-62.45192184392374, -37.27367496536143]}}, {"type": "Feature", "properties": {"norad_id": 35888, "name": "COSMOS 2251 DEB", "group": "cosmos-2251-debris", "lat": 11.315747254346325, "lon": 15.811797454766204, "alt_km": 724.1789594079783, "timestamp": "2025-12-04T09:47:37.916556+00:00", "meta": {"OBJECT_NAME": "COSMOS 2251 DEB", "OBJECT_ID": "1993-036AUB", "EPOCH": "2025-12-03T20:34:04.413792", "MEAN_MOTION": 14.58269247, "ECCENTRICITY": 0.00486247, "INCLINATION": 74.0341, "RA_OF_ASC_NODE": 13.576, "ARG_OF_PERICENTER": 148.3598, "MEAN_ANOMALY": 212.0506, "EPHEMERIS_TYPE": 0, "CLASSIFICATION_TYPE": "U", "NORAD_CAT_ID": 35888, "ELEMENT_SET_NO": 999, "REV_AT_EPOCH": 86144, "BSTAR": 0.0007624235, "MEAN_MOTION_DOT": 3.553e-05, "MEAN_MOTION_DDOT": 0}, "tle": {"line1": "1 35888U 93036AUB 25337.85699553  .00003553  00000+0  76242-3 0  9992", "line2": "2 35888  74.0341  13.5760 0048624 148.3598 212.0506 14.58269247861444"}}, "geometry": {"type": "Point", "coordinates": [15.811797454766204, 11.315747254346325]}}, {"type": "Feature", "properties": {"norad_id": 35890, "name": "COSMOS 2251 DEB", "group": "cosmos-2251-debris", "lat": 72.27804486528544, "lon": -36.992812895711715, "alt_km": 674.6997020953058, "timestamp": "2025-12-04T09:47:37.916566+00:00", "meta": {"OBJECT_NAME": "COSMOS 2251 DEB", "OBJECT_ID": "1993-036AUD", "EPOCH": "2025-12-02T03:02:51.744192", "MEAN_MOTION": 14.57171025, "ECCENTRICITY": 0.00534303, "INCLINATION": 73.9364, "RA_OF_ASC_NODE": 262.9881, "ARG_OF_PERICENTER": 29.2492, "MEAN_ANOMALY": 331.1644, "EPHEMERIS_TYPE": 0, "CLASSIFICATION_TYPE": "U", "NORAD_CAT_ID": 35890, "ELEMENT_SET_NO": 999, "REV_AT_EPOCH": 64996, "BSTAR": 0.0024494131, "MEAN_MOTION_DOT": 0.0001126, "MEAN_MOTION_DDOT": 0}, "tle": {"line1": "1 35890U 93036AUD 25336.12698778  .00011260  00000+0  24494-2 0  9997", "line2": "2 35890  73.9364 262.9881 0053430  29.2492 331.1644 14.57171025649967"}}, "geometry": {"type": "Point", "coordinates": [-36.992812895711715, 72.27804486528544]}}, {"type": "Feature", "properties": {"norad_id": 35891, "name": "COSMOS 2251 DEB", "group": "cosmos-2251-debris", "lat": -54.9904378938598, "lon": -44.06003840919652, "alt_km": 444.4892664390454, "timestamp": "2025-12-04T09:47:37.916576+00:00", "meta": {"OBJECT_NAME": "COSMOS 2251 DEB", "OBJECT_ID": "1993-036AUE", "EPOCH": "2025-12-03T02:58:43.616352", "MEAN_MOTION": 15.32047651, "ECCENTRICITY": 0.00461409, "INCLINATION": 73.9877, "RA_OF_ASC_NODE": 114.4843, "ARG_OF_PERICENTER": 245.3974, "MEAN_ANOMALY": 114.2419, "EPHEMERIS_TYPE": 0, "CLASSIFICATION_TYPE": "U", "NORAD_CAT_ID": 35891, "ELEMENT_SET_NO": 999, "REV_AT_EPOCH": 67073, "BSTAR": 0.0018018227, "MEAN_MOTION_DOT": 0.00058053, "MEAN_MOTION_DDOT": 0}, "tle": {"line1": "1 35891U 93036AUE 25337.12411593  .00058053  00000+0  18018-2 0  9993", "line2": "2 35891  73.9877 114.4843 0046140 245.3974 114.2419 15.32047651670732"}}, "geometry": {"type": "Point", "coordinates": [-44.06003840919652, -54.9904378938598]}}, {"type": "Feature", "properties": {"norad_id": 35895, "name": "COSMOS 2251 DEB", "group": "cosmos-2251-debris", "lat": 8.790523216832291, "lon": 179.58110875363323, "alt_km": 833.382035782055, "timestamp": "2025-12-04T09:47:37.916586+00:00", "meta": {"OBJECT_NAME": "COSMOS 2251 DEB", "OBJECT_ID": "1993-036AUJ", "EPOCH": "2025-11-28T10:48:22.739616", "MEAN_MOTION": 14.01419981, "ECCENTRICITY": 0.01996382, "INCLINATION": 74.0486, "RA_OF_ASC_NODE": 12.4453, "ARG_OF_PERICENTER": 114.4344, "MEAN_ANOMALY": 247.7763, "EPHEMERIS_TYPE": 0, "CLASSIFICATION_TYPE": "U", "NORAD_CAT_ID": 35895, "ELEMENT_SET_NO": 999, "REV_AT_EPOCH": 58812, "BSTAR": 0.0013219318, "MEAN_MOTION_DOT": 2.352e-05, "MEAN_MOTION_DDOT": 0}, "tle": {"line1": "1 35895U 93036AUJ 25332.45026319  .00002352  00000+0  13219-2 0  9995", "line2": "2 35895  74.0486  12.4453 0199638 114.4344 247.7763 14.01419981588125"}}, "geometry": {"type": "Point", "coordinates": [179.58110875363323, 8.790523216832291]}}, {"type": "Feature", "properties": {"norad_id": 35898, "name": "COSMOS 2251 DEB", "group": "cosmos-2251-debris", "lat": 52.928360491074116, "lon": 111.95862667369063, "alt_km": 528.1083235786455, "timestamp": "2025-12-04T09:47:37.916596+00:00", "meta": {"OBJECT_NAME": "COSMOS 2251 DEB", "OBJECT_ID": "1993-036AUM", "EPOCH": "2025-12-03T16:21:36.058176", "MEAN_MOTION": 14.94472827, "ECCENTRICITY": 0.00791982, "INCLINATION": 73.9906, "RA_OF_ASC_NODE": 315.7614, "ARG_OF_PERICENTER": 101.7637, "MEAN_ANOMALY": 75.1719, "EPHEMERIS_TYPE": 0, "CLASSIFICATION_TYPE": "U", "NORAD_CAT_ID": 35898, "ELEMENT_SET_NO": 999, "REV_AT_EPOCH": 66674, "BSTAR": 0.00091601953, "MEAN_MOTION_DOT": 0.00010495, "MEAN_MOTION_DDOT": 0}, "tle": {"line1": "1 35898U 93036AUM 25337.68166734  .00010495  00000+0  91602-3 0  9994", "line2": "2 35898  73.9906 315.7614 0079198 101.7637  75.1719 14.94472827666742"}}, "geometry": {"type": "Point", "coordinates": [111.95862667369063, 52.928360491074116]}}, {"type": "Feature", "properties": {"norad_id": 35901, "name": "COSMOS 2251 DEB", "group": "cosmos-2251-debris", "lat": 46.128624878829335, "lon": -157.360465548277, "alt_km": 546.3610711782139, "timestamp": "2025-12-04T09:47:37.916606+00:00", "meta": {"OBJECT_NAME": "COSMOS 2251 DEB", "OBJECT_ID": "1993-036AUQ", "EPOCH": "2025-12-03T12:47:12.154848", "MEAN_MOTION": 15.05661213, "ECCENTRICITY": 0.00053546, "INCLINATION": 74.0104, "RA_OF_ASC_NODE": 41.7901, "ARG_OF_PERICENTER": 18.2777, "MEAN_ANOMALY": 50.4062, "EPHEMERIS_TYPE": 0, "CLASSIFICATION_TYPE": "U", "NORAD_CAT_ID": 35901, "ELEMENT_SET_NO": 999, "REV_AT_EPOCH": 85988, "BSTAR": 0.0045461662, "MEAN_MOTION_DOT": 0.00066284, "MEAN_MOTION_DDOT": 0}, "tle": {"line1": "1 35901U 93036AUQ 25337.53277957  .00066284  00000+0  45462-2 0  9992", "line2": "2 35901  74.0104  41.7901 0005354  18.2777  50.4062 15.05661213859882"}}, "geometry": {"type": "Point", "coordinates": [-157.360465548277, 46.128624878829335]}}, {"type": "Feature", "properties": {"norad_id": 35902, "name": "COSMOS 2251 DEB", "group": "cosmos-2251-debris", "lat": -70.2439870352772, "lon": -163.40220502284882, "alt_km": 801.2370375137434, "timestamp": "2025-12-04T09:47:37.916616+00:00", "meta": {"OBJECT_NAME": "COSMOS 2251 DEB", "OBJECT_ID": "1993-036AUR", "EPOCH": "2025-12-01T03:04:00.207552", "MEAN_MOTION": 14.26791124, "ECCENTRICITY": 0.01016301, "INCLINATION": 73.9836, "RA_OF_ASC_NODE": 255.6555, "ARG_OF_PERICENTER": 12.6385, "MEAN_ANOMALY": 347.7274, "EPHEMERIS_TYPE": 0, "CLASSIFICATION_TYPE": "U", "NORAD_CAT_ID": 35902, "ELEMENT_SET_NO": 999, "REV_AT_EPOCH": 60964, "BSTAR": 0.0014097892, "MEAN_MOTION_DOT": 3.584e-05, "MEAN_MOTION_DDOT": 0}, "tle": {"line1": "1 35902U 93036AUR 25335.12778018  .00003584  00000+0  14098-2 0  9995", "line2": "2 35902  73.9836 255.6555 0101630  12.6385 347.7274 14.26791124609642"}}, "geometry": {"type": "Point", "coordinates": [-163.40220502284882, -70.2439870352772]}}, {"type": "Feature", "properties": {"norad_id": 35905, "name": "COSMOS 2251 DEB", "group": "cosmos-2251-debris", "lat": -52.331427407811184, "lon": 69.49409417132372, "alt_km": 559.6630367557191, "timestamp": "2025-12-04T09:47:37.916626+00:00", "meta": {"OBJECT_NAME": "COSMOS 2251 DEB", "OBJECT_ID": "1993-036AUU", "EPOCH": "2025-12-03T10:18:42.783840", "MEAN_MOTION": 14.98799352, "ECCENTRICITY": 0.00909914, "INCLINATION": 74.0329, "RA_OF_ASC_NODE": 229.7091, "ARG_OF_PERICENTER": 312.0249, "MEAN_ANOMALY": 47.3216, "EPHEMERIS_TYPE": 0, "CLASSIFICATION_TYPE": "U", "NORAD_CAT_ID": 35905, "ELEMENT_SET_NO": 999, "REV_AT_EPOCH": 88443, "BSTAR": 0.00080980013, "MEAN_MOTION_DOT": 0.00010615, "MEAN_MOTION_DDOT": 0}, "tle": {"line1": "1 35905U 93036AUU 25337.42966185  .00010615  00000+0  80980-3 0  9994", "line2": "2 35905  74.0329 229.7091 0090991 312.0249  47.3216 14.98799352884435"}}, "geometry": {"type": "Point", "coordinates": [69.49409417132372, -52.331427407811184]}}]}